{"fetched_at":"2026-03-29T16:36:15Z","count":15609,"tles":[{"name":"STARLINK-33749","line1":"1 63716U 25087V   26087.81160276  .00019403  00000+0  66539-3 0  9997","line2":"2 63716  53.1577 130.9919 0001064  92.8934 267.2189 15.30205649 52121","category":"Starlink"}]}