{
  "norad_id": 63716,
  "name": "STARLINK-33749",
  "history": [
    {
      "epoch": "2026-03-28T19:28:42.478464",
      "apogee_km": 475.9274659743569,
      "perigee_km": 474.46893917654506,
      "latitude_deg": 49.1214551431808,
      "longitude_deg": -90.4861350399442,
      "semi_major_axis_km": 6853.335202575451,
      "eccentricity": 0.00010641,
      "inclination_deg": 53.1577,
      "raan_deg": 130.9919,
      "arg_perigee_deg": 92.8934,
      "mean_anomaly_deg": 267.2189,
      "mean_motion_rev_day": 15.30205649
    }
  ]
}